[{"OBJECT_NAME":"GLOBALSTAR M091","OBJECT_ID":"2011-033C","EPOCH":"2026-03-09T12:19:51.159648","MEAN_MOTION":12.62270327,"ECCENTRICITY":8.483e-5,"INCLINATION":51.9991,"RA_OF_ASC_NODE":185.3633,"ARG_OF_PERICENTER":103.6138,"MEAN_ANOMALY":336.8704,"EPHEMERIS_TYPE":0,"CLASSIFICATION_TYPE":"U","NORAD_CAT_ID":37741,"ELEMENT_SET_NO":999,"REV_AT_EPOCH":67669,"BSTAR":0.00014268137,"MEAN_MOTION_DOT":-7.8e-7,"MEAN_MOTION_DDOT":0},{"OBJECT_NAME":"COSMOS 1691","OBJECT_ID":"1985-094B","EPOCH":"2026-03-09T20:42:08.275392","MEAN_MOTION":12.62473035,"ECCENTRICITY":0.00014379,"INCLINATION":82.618,"RA_OF_ASC_NODE":353.0301,"ARG_OF_PERICENTER":66.0528,"MEAN_ANOMALY":355.1265,"EPHEMERIS_TYPE":0,"CLASSIFICATION_TYPE":"U","NORAD_CAT_ID":16139,"ELEMENT_SET_NO":999,"REV_AT_EPOCH":86270,"BSTAR":0.00014585855,"MEAN_MOTION_DOT":3.7e-7,"MEAN_MOTION_DDOT":0}]
